ONEWEB-0589             
1 54655U 22166P   24271.52199615  .00000088  00000+0  18188-3 0  9990
2 54655  87.9371   8.9739 0000930  95.9999 264.1241 13.21823896 88627
ONEWEB-0590             
1 54656U 22166Q   24271.69705450  .00000024  00000+0  25846-4 0  9999
2 54656  87.9376   8.9497 0001901  95.4713 264.6638 13.21825238 88630
ONEWEB-0591             
1 54657U 22166R   24271.70965706 -.00000309  00000+0 -77896-3 0  9993
2 54657  87.9367   8.9387 0001784  98.6475 261.4861 13.21825080 88669
ONEWEB-0592             
1 54658U 22166S   24271.71281056  .00000052  00000+0  95526-4 0  9998
2 54658  87.9363   8.9000 0001726  96.4543 263.6787 13.21823116 88542
ONEWEB-0593             
1 54659U 22166T   24271.50938617  .00000090  00000+0  18697-3 0  9993
2 54659  87.9371   8.9693 0001652  99.4205 260.7115 13.21825156 88624
ONEWEB-0594             
1 54660U 22166U   24271.52829870  .00000106  00000+0  22407-3 0  9999
2 54660  87.9373   8.9690 0001980 103.8082 256.3272 13.21823703 88645
ONEWEB-0595             
1 54661U 22166V   24271.50622625  .00000086  00000+0  17643-3 0  9990
2 54661  87.9371   8.9584 0002045  98.8948 261.2417 13.21824308 88618
ONEWEB-0596             
1 54662U 22166W   24271.70651665  .00000053  00000+0  96519-4 0  9993
2 54662  87.9373   8.9260 0001623  93.1113 267.0207 13.21826673 88646
